{
  "type": "FeatureCollection",
  "generator": "overpass-turbo",
  "copyright": "The data included in this document is from www.openstreetmap.org. The data is made available under ODbL.",
  "timestamp": "2026-07-28T02:16:18Z",
  "features": [
    {
      "type": "Feature",
      "properties": {
        "@id": "way/25380261",
        "waterway": "drain"
      },
      "geometry": {
        "type": "LineString",
        "coordinates": [
          [
            80.1718466,
            13.0854976
          ],
          [
            80.1720354,
            13.0842018
          ],
          [
            80.172928,
            13.0839175
          ],
          [
            80.173973,
            13.0805136
          ],
          [
            80.1747991,
            13.0778228
          ],
          [
            80.1770393,
            13.0759501
          ],
          [
            80.1778461,
            13.0759501
          ],
          [
            80.1778431,
            13.0748461
          ],
          [
            80.1779062,
            13.0745706
          ],
          [
            80.179022,
            13.0739185
          ],
          [
            80.1789963,
            13.0737095
          ],
          [
            80.1802032,
            13.0734625
          ],
          [
            80.1802941,
            13.0730535
          ],
          [
            80.1810734,
            13.0730323
          ],
          [
            80.1811192,
            13.0726137
          ],
          [
            80.1813475,
            13.0723637
          ],
          [
            80.1815133,
            13.0721394
          ],
          [
            80.1816618,
            13.0719842
          ]
        ]
      },
      "id": "way/25380261"
    },
    {
      "type": "Feature",
      "properties": {
        "@id": "way/27708793",
        "layer": "-1",
        "name": "Vyasarpadi Canal",
        "waterway": "drain"
      },
      "geometry": {
        "type": "LineString",
        "coordinates": [
          [
            80.2514231,
            13.1214383
          ],
          [
            80.2525303,
            13.1212126
          ],
          [
            80.2535088,
            13.1209535
          ],
          [
            80.2540667,
            13.1204519
          ],
          [
            80.2543328,
            13.1199253
          ],
          [
            80.2547019,
            13.1195074
          ],
          [
            80.255131,
            13.1193485
          ],
          [
            80.2569602,
            13.1184416
          ]
        ]
      },
      "id": "way/27708793"
    },
    {
      "type": "Feature",
      "properties": {
        "@id": "way/27708880",
        "name": "Otteri Nullah",
        "waterway": "drain"
      },
      "geometry": {
        "type": "LineString",
        "coordinates": [
          [
            80.1978753,
            13.09869
          ],
          [
            80.1989866,
            13.0985933
          ],
          [
            80.2007015,
            13.0983699
          ],
          [
            80.2009476,
            13.0981512
          ],
          [
            80.2014406,
            13.0979854
          ],
          [
            80.2025564,
            13.0978433
          ],
          [
            80.2078779,
            13.0956447
          ],
          [
            80.2076891,
            13.0934042
          ],
          [
            80.2102125,
            13.0926519
          ],
          [
            80.2127748,
            13.0925805
          ],
          [
            80.2128847,
            13.0926628
          ],
          [
            80.2129305,
            13.0927213
          ],
          [
            80.2129551,
            13.0929716
          ],
          [
            80.2144868,
            13.0929812
          ],
          [
            80.2147429,
            13.093044
          ],
          [
            80.214854,
            13.0932325
          ],
          [
            80.2158253,
            13.0935756
          ],
          [
            80.2166709,
            13.0937833
          ],
          [
            80.2169028,
            13.093909
          ],
          [
            80.2170284,
            13.0940104
          ],
          [
            80.2172314,
            13.0940443
          ],
          [
            80.2181495,
            13.0940104
          ],
          [
            80.218565,
            13.0939285
          ],
          [
            80.2196135,
            13.0938611
          ],
          [
            80.2221202,
            13.0937465
          ],
          [
            80.2228201,
            13.0933902
          ],
          [
            80.2242781,
            13.0921402
          ],
          [
            80.2248753,
            13.0914672
          ],
          [
            80.2256922,
            13.0905573
          ],
          [
            80.2259518,
            13.090223
          ],
          [
            80.2262947,
            13.0895774
          ],
          [
            80.2276938,
            13.0882791
          ],
          [
            80.2280828,
            13.0882817
          ],
          [
            80.2284456,
            13.0884794
          ],
          [
            80.2287732,
            13.0884547
          ],
          [
            80.2295363,
            13.0875753
          ],
          [
            80.2300671,
            13.0871549
          ],
          [
            80.2313994,
            13.0865872
          ],
          [
            80.2318102,
            13.0863286
          ],
          [
            80.2328239,
            13.0859334
          ],
          [
            80.2333554,
            13.0858449
          ],
          [
            80.2337271,
            13.0857988
          ],
          [
            80.2341106,
            13.0859
          ],
          [
            80.2342325,
            13.0861038
          ],
          [
            80.2343476,
            13.0865202
          ],
          [
            80.2344336,
            13.0865073
          ],
          [
            80.2346628,
            13.0864727
          ],
          [
            80.2357033,
            13.0862153
          ],
          [
            80.2364402,
            13.0859877
          ],
          [
            80.2380441,
            13.0851532
          ],
          [
            80.2384668,
            13.085034
          ],
          [
            80.2403313,
            13.0849488
          ],
          [
            80.2414254,
            13.0846872
          ],
          [
            80.2417299,
            13.0847373
          ],
          [
            80.2426475,
            13.0853041
          ],
          [
            80.2435226,
            13.0857998
          ],
          [
            80.2444092,
            13.086217
          ],
          [
            80.2449515,
            13.0865716
          ],
          [
            80.2457338,
            13.0870723
          ],
          [
            80.2463983,
            13.0876146
          ],
          [
            80.2474085,
            13.088851
          ],
          [
            80.2481401,
            13.0897806
          ],
          [
            80.2489254,
            13.0908792
          ],
          [
            80.2496242,
            13.0921178
          ],
          [
            80.2496892,
            13.0928046
          ],
          [
            80.2503165,
            13.0956976
          ],
          [
            80.2507047,
            13.0968382
          ],
          [
            80.2509695,
            13.0977345
          ],
          [
            80.2510566,
            13.0979462
          ],
          [
            80.2515195,
            13.0982845
          ],
          [
            80.2529811,
            13.0985245
          ],
          [
            80.2533285,
            13.0986046
          ],
          [
            80.253577,
            13.0987327
          ],
          [
            80.2542377,
            13.0993645
          ],
          [
            80.2545053,
            13.0996279
          ],
          [
            80.2548917,
            13.100027
          ],
          [
            80.2556342,
            13.1008787
          ],
          [
            80.2563415,
            13.1015507
          ],
          [
            80.2569427,
            13.1021519
          ],
          [
            80.2571455,
            13.1028577
          ],
          [
            80.2577326,
            13.1040381
          ],
          [
            80.2582042,
            13.1048869
          ],
          [
            80.2585696,
            13.1054056
          ],
          [
            80.2593712,
            13.1059243
          ],
          [
            80.2603733,
            13.1063605
          ],
          [
            80.2611042,
            13.1065373
          ],
          [
            80.2622124,
            13.1064666
          ],
          [
            80.2632144,
            13.1062662
          ],
          [
            80.2638086,
            13.1060712
          ],
          [
            80.2639689,
            13.1060186
          ],
          [
            80.2647941,
            13.1057475
          ],
          [
            80.2655132,
            13.1056768
          ],
          [
            80.2669986,
            13.105606
          ],
          [
            80.2680714,
            13.1055353
          ],
          [
            80.2693418,
            13.1054269
          ],
          [
            80.2702272,
            13.1052677
          ],
          [
            80.2708568,
            13.105173
          ],
          [
            80.2712565,
            13.1052513
          ],
          [
            80.2715152,
            13.1056197
          ],
          [
            80.2716014,
            13.1061605
          ],
          [
            80.2721067,
            13.1068969
          ]
        ]
      },
      "id": "way/27708880"
    },
    {
      "type": "Feature",
      "properties": {
        "@id": "way/27709553",
        "layer": "-1",
        "name": "Raj Bhavan Canal",
        "waterway": "drain"
      },
      "geometry": {
        "type": "LineString",
        "coordinates": [
          [
            80.2176754,
            12.9954573
          ],
          [
            80.2170965,
            12.9951777
          ]
        ]
      },
      "id": "way/27709553"
    },
    {
      "type": "Feature",
      "properties": {
        "@id": "way/27877877",
        "waterway": "drain"
      },
      "geometry": {
        "type": "LineString",
        "coordinates": [
          [
            80.1933816,
            13.0787676
          ],
          [
            80.192736,
            13.0790372
          ],
          [
            80.192025,
            13.078435
          ],
          [
            80.1918402,
            13.0783555
          ],
          [
            80.191646,
            13.0783684
          ],
          [
            80.1891796,
            13.0800404
          ],
          [
            80.1895462,
            13.0813903
          ],
          [
            80.1897738,
            13.0820663
          ],
          [
            80.1899641,
            13.0824661
          ],
          [
            80.1900551,
            13.0825733
          ],
          [
            80.1913112,
            13.0856251
          ],
          [
            80.192221,
            13.087665
          ],
          [
            80.1923154,
            13.0890277
          ],
          [
            80.1922554,
            13.0902399
          ],
          [
            80.1915258,
            13.092355
          ]
        ]
      },
      "id": "way/27877877"
    },
    {
      "type": "Feature",
      "properties": {
        "@id": "way/28342742",
        "waterway": "drain"
      },
      "geometry": {
        "type": "LineString",
        "coordinates": [
          [
            80.2664529,
            13.0975735
          ],
          [
            80.2666199,
            13.0981948
          ],
          [
            80.2667932,
            13.098333
          ],
          [
            80.2669549,
            13.0985623
          ],
          [
            80.2672747,
            13.0990177
          ],
          [
            80.2675092,
            13.099345
          ],
          [
            80.2675765,
            13.0994136
          ],
          [
            80.2676454,
            13.099463
          ],
          [
            80.2677175,
            13.0994999
          ],
          [
            80.2678312,
            13.0995533
          ],
          [
            80.267858,
            13.0995749
          ],
          [
            80.267885,
            13.0996298
          ],
          [
            80.2679024,
            13.0997078
          ],
          [
            80.2679255,
            13.099833
          ],
          [
            80.2682456,
            13.1018962
          ],
          [
            80.2682912,
            13.1024056
          ],
          [
            80.2683181,
            13.1025284
          ],
          [
            80.2684309,
            13.1026004
          ],
          [
            80.268733,
            13.1026083
          ],
          [
            80.2687485,
            13.1026087
          ],
          [
            80.2689373,
            13.1026756
          ],
          [
            80.2689909,
            13.1027427
          ],
          [
            80.2690575,
            13.1028261
          ],
          [
            80.2690866,
            13.1030817
          ],
          [
            80.2691433,
            13.1035785
          ],
          [
            80.2692725,
            13.1050221
          ],
          [
            80.2693418,
            13.1054269
          ]
        ]
      },
      "id": "way/28342742"
    },
    {
      "type": "Feature",
      "properties": {
        "@id": "way/28502295",
        "layer": "-1",
        "tunnel": "yes",
        "waterway": "drain"
      },
      "geometry": {
        "type": "LineString",
        "coordinates": [
          [
            80.2433793,
            13.0631433
          ],
          [
            80.2449537,
            13.0628279
          ],
          [
            80.2454861,
            13.0627309
          ],
          [
            80.2456687,
            13.0627544
          ],
          [
            80.2458514,
            13.0628283
          ],
          [
            80.2462798,
            13.0633028
          ],
          [
            80.2464886,
            13.0634024
          ],
          [
            80.2466625,
            13.0634087
          ],
          [
            80.2475411,
            13.0633939
          ],
          [
            80.2477998,
            13.0633621
          ],
          [
            80.2499911,
            13.0626863
          ],
          [
            80.2517428,
            13.0621687
          ],
          [
            80.2519314,
            13.0611533
          ],
          [
            80.2520041,
            13.06112
          ]
        ]
      },
      "id": "way/28502295"
    },
    {
      "type": "Feature",
      "properties": {
        "@id": "way/30037017",
        "waterway": "drain"
      },
      "geometry": {
        "type": "LineString",
        "coordinates": [
          [
            80.2355812,
            12.9897175
          ],
          [
            80.2356148,
            12.989941
          ],
          [
            80.2355833,
            12.9904221
          ],
          [
            80.2357385,
            12.9911863
          ],
          [
            80.2359383,
            12.9923779
          ],
          [
            80.236078,
            12.9927112
          ],
          [
            80.2361845,
            12.9927915
          ],
          [
            80.2364274,
            12.9929746
          ],
          [
            80.2369112,
            12.9931788
          ],
          [
            80.2371853,
            12.99341
          ],
          [
            80.2372245,
            12.9934942
          ]
        ]
      },
      "id": "way/30037017"
    },
    {
      "type": "Feature",
      "properties": {
        "@id": "way/30981164",
        "layer": "-1",
        "tunnel": "yes",
        "waterway": "drain"
      },
      "geometry": {
        "type": "LineString",
        "coordinates": [
          [
            80.25416,
            13.0910521
          ],
          [
            80.2552505,
            13.0920544
          ],
          [
            80.2564458,
            13.0928346
          ],
          [
            80.2567292,
            13.0934216
          ],
          [
            80.256867,
            13.0936783
          ],
          [
            80.2571066,
            13.0938358
          ],
          [
            80.2577115,
            13.0939641
          ],
          [
            80.2590173,
            13.0940458
          ],
          [
            80.2591605,
            13.0937329
          ],
          [
            80.2618445,
            13.093978
          ],
          [
            80.2620923,
            13.0941686
          ],
          [
            80.2621876,
            13.0944036
          ],
          [
            80.2622893,
            13.0947213
          ],
          [
            80.2624522,
            13.0948424
          ],
          [
            80.2628067,
            13.0949263
          ],
          [
            80.2632205,
            13.0966264
          ],
          [
            80.2634914,
            13.0969708
          ],
          [
            80.264176,
            13.0971134
          ],
          [
            80.2653257,
            13.0970589
          ],
          [
            80.2657037,
            13.0969831
          ],
          [
            80.2662336,
            13.0968388
          ],
          [
            80.2664529,
            13.0975735
          ]
        ]
      },
      "id": "way/30981164"
    },
    {
      "type": "Feature",
      "properties": {
        "@id": "way/32685679",
        "boat": "no",
        "created_by": "Potlatch 0.10f",
        "waterway": "drain"
      },
      "geometry": {
        "type": "LineString",
        "coordinates": [
          [
            80.2023586,
            13.0274743
          ],
          [
            80.2023966,
            13.0279759
          ]
        ]
      },
      "id": "way/32685679"
    },
    {
      "type": "Feature",
      "properties": {
        "@id": "way/85857111",
        "layer": "-1",
        "waterway": "drain"
      },
      "geometry": {
        "type": "LineString",
        "coordinates": [
          [
            80.2414098,
            13.0303135
          ],
          [
            80.2413864,
            13.0302377
          ],
          [
            80.2410215,
            13.0288542
          ]
        ]
      },
      "id": "way/85857111"
    },
    {
      "type": "Feature",
      "properties": {
        "@id": "way/102550210",
        "layer": "-1",
        "waterway": "drain"
      },
      "geometry": {
        "type": "LineString",
        "coordinates": [
          [
            80.2103977,
            12.9888797
          ],
          [
            80.2120121,
            12.988756
          ],
          [
            80.2149296,
            12.9880186
          ],
          [
            80.2172517,
            12.9873198
          ],
          [
            80.2180981,
            12.9870545
          ]
        ]
      },
      "id": "way/102550210"
    },
    {
      "type": "Feature",
      "properties": {
        "@id": "way/102550213",
        "layer": "-1",
        "tunnel": "yes",
        "waterway": "drain"
      },
      "geometry": {
        "type": "LineString",
        "coordinates": [
          [
            80.2180981,
            12.9870545
          ],
          [
            80.2184063,
            12.9869953
          ]
        ]
      },
      "id": "way/102550213"
    },
    {
      "type": "Feature",
      "properties": {
        "@id": "way/102550242",
        "layer": "-1",
        "waterway": "drain"
      },
      "geometry": {
        "type": "LineString",
        "coordinates": [
          [
            80.2184063,
            12.9869953
          ],
          [
            80.2186568,
            12.9869377
          ],
          [
            80.2190116,
            12.9868194
          ],
          [
            80.2193803,
            12.9867012
          ],
          [
            80.2198398,
            12.9864879
          ],
          [
            80.220859,
            12.9861691
          ],
          [
            80.2222806,
            12.9855523
          ],
          [
            80.2225596,
            12.9852282
          ],
          [
            80.2225167,
            12.9848727
          ]
        ]
      },
      "id": "way/102550242"
    },
    {
      "type": "Feature",
      "properties": {
        "@id": "way/102574504",
        "layer": "-1",
        "waterway": "drain"
      },
      "geometry": {
        "type": "LineString",
        "coordinates": [
          [
            80.1796096,
            13.1140778
          ],
          [
            80.1794972,
            13.1147801
          ],
          [
            80.1794834,
            13.1153853
          ],
          [
            80.1800661,
            13.1179994
          ],
          [
            80.1825949,
            13.1213601
          ],
          [
            80.1871519,
            13.1257468
          ],
          [
            80.1900231,
            13.1280043
          ],
          [
            80.1902602,
            13.129646
          ],
          [
            80.1898387,
            13.1315956
          ],
          [
            80.1895544,
            13.1321468
          ]
        ]
      },
      "id": "way/102574504"
    },
    {
      "type": "Feature",
      "properties": {
        "@id": "way/102574544",
        "layer": "-1",
        "waterway": "drain"
      },
      "geometry": {
        "type": "LineString",
        "coordinates": [
          [
            80.1953847,
            13.1118541
          ],
          [
            80.1874092,
            13.1127115
          ],
          [
            80.1875076,
            13.1097561
          ],
          [
            80.1819454,
            13.1102541
          ],
          [
            80.1802105,
            13.1104604
          ],
          [
            80.1797872,
            13.1104962
          ]
        ]
      },
      "id": "way/102574544"
    },
    {
      "type": "Feature",
      "properties": {
        "@id": "way/102580554",
        "layer": "-1",
        "name": "Raj Bhavan Canal",
        "waterway": "drain"
      },
      "geometry": {
        "type": "LineString",
        "coordinates": [
          [
            80.2169341,
            12.995015
          ],
          [
            80.2166057,
            12.9948664
          ],
          [
            80.2164651,
            12.9945265
          ],
          [
            80.2159568,
            12.9938105
          ],
          [
            80.2148891,
            12.9940552
          ],
          [
            80.2144599,
            12.9933527
          ],
          [
            80.2140849,
            12.99306
          ],
          [
            80.2139039,
            12.9927141
          ],
          [
            80.2144135,
            12.9924686
          ],
          [
            80.2142957,
            12.9920692
          ],
          [
            80.2144673,
            12.9919869
          ],
          [
            80.2143842,
            12.9917099
          ],
          [
            80.214297,
            12.9915191
          ],
          [
            80.2142635,
            12.9914877
          ],
          [
            80.2141696,
            12.9913315
          ],
          [
            80.214126,
            12.9913159
          ],
          [
            80.2140261,
            12.991344
          ],
          [
            80.2139986,
            12.9913329
          ],
          [
            80.2139685,
            12.9912682
          ],
          [
            80.2139368,
            12.9911804
          ],
          [
            80.2143998,
            12.9909524
          ],
          [
            80.2147346,
            12.9906262
          ],
          [
            80.2153237,
            12.9904213
          ],
          [
            80.2151669,
            12.9897027
          ],
          [
            80.2150516,
            12.9890484
          ]
        ]
      },
      "id": "way/102580554"
    },
    {
      "type": "Feature",
      "properties": {
        "@id": "way/102580558",
        "layer": "-1",
        "name": "Raj Bhavan Canal",
        "tunnel": "yes",
        "waterway": "drain"
      },
      "geometry": {
        "type": "LineString",
        "coordinates": [
          [
            80.2150516,
            12.9890484
          ],
          [
            80.2150291,
            12.9887956
          ]
        ]
      },
      "id": "way/102580558"
    },
    {
      "type": "Feature",
      "properties": {
        "@id": "way/102580561",
        "layer": "-1",
        "name": "Raj Bhavan Canal",
        "tunnel": "yes",
        "waterway": "drain"
      },
      "geometry": {
        "type": "LineString",
        "coordinates": [
          [
            80.2170965,
            12.9951777
          ],
          [
            80.2169341,
            12.995015
          ]
        ]
      },
      "id": "way/102580561"
    },
    {
      "type": "Feature",
      "properties": {
        "@id": "way/102580579",
        "layer": "-1",
        "name": "Raj Bhavan Canal",
        "waterway": "drain"
      },
      "geometry": {
        "type": "LineString",
        "coordinates": [
          [
            80.2150291,
            12.9887956
          ],
          [
            80.2149296,
            12.9880186
          ]
        ]
      },
      "id": "way/102580579"
    },
    {
      "type": "Feature",
      "properties": {
        "@id": "way/103716685",
        "waterway": "drain"
      },
      "geometry": {
        "type": "LineString",
        "coordinates": [
          [
            80.1987409,
            12.9922361
          ],
          [
            80.1986803,
            12.9919855
          ],
          [
            80.1984626,
            12.9916628
          ],
          [
            80.1983714,
            12.9915844
          ],
          [
            80.1980925,
            12.9910512
          ],
          [
            80.1980066,
            12.990701
          ],
          [
            80.1976848,
            12.9894465
          ],
          [
            80.1974648,
            12.9887304
          ],
          [
            80.1974159,
            12.9885501
          ],
          [
            80.1968729,
            12.9867297
          ],
          [
            80.1967845,
            12.9864973
          ],
          [
            80.1966678,
            12.9860584
          ],
          [
            80.1965161,
            12.9855194
          ],
          [
            80.1964998,
            12.9850463
          ],
          [
            80.1963527,
            12.9844868
          ],
          [
            80.1963491,
            12.984303
          ]
        ]
      },
      "id": "way/103716685"
    },
    {
      "type": "Feature",
      "properties": {
        "@id": "way/103719115",
        "waterway": "drain"
      },
      "geometry": {
        "type": "LineString",
        "coordinates": [
          [
            80.2024801,
            12.9901012
          ],
          [
            80.2024473,
            12.9896299
          ],
          [
            80.2024068,
            12.9894535
          ],
          [
            80.2025113,
            12.9894155
          ],
          [
            80.2024689,
            12.9892106
          ],
          [
            80.2029051,
            12.9890459
          ],
          [
            80.2033917,
            12.9887811
          ],
          [
            80.2040323,
            12.9886131
          ],
          [
            80.2043038,
            12.9885341
          ],
          [
            80.2044422,
            12.9884612
          ],
          [
            80.2047276,
            12.9884047
          ],
          [
            80.2049776,
            12.98838
          ]
        ]
      },
      "id": "way/103719115"
    },
    {
      "type": "Feature",
      "properties": {
        "@id": "way/122063612",
        "layer": "-1",
        "tunnel": "culvert",
        "waterway": "drain"
      },
      "geometry": {
        "type": "LineString",
        "coordinates": [
          [
            80.1708858,
            13.0283143
          ],
          [
            80.1733269,
            13.0269807
          ],
          [
            80.1746688,
            13.0261794
          ],
          [
            80.1757801,
            13.0255822
          ],
          [
            80.1762516,
            13.0253125
          ],
          [
            80.1767613,
            13.0250338
          ],
          [
            80.1783587,
            13.0241488
          ],
          [
            80.1803194,
            13.0230725
          ],
          [
            80.1815363,
            13.0223961
          ],
          [
            80.1820425,
            13.0221404
          ]
        ]
      },
      "id": "way/122063612"
    },
    {
      "type": "Feature",
      "properties": {
        "@id": "way/214148762",
        "waterway": "drain"
      },
      "geometry": {
        "type": "LineString",
        "coordinates": [
          [
            80.2435144,
            13.0333872
          ],
          [
            80.2432205,
            13.0336376
          ],
          [
            80.243244,
            13.03372
          ],
          [
            80.2435849,
            13.0347484
          ],
          [
            80.2437611,
            13.0349948
          ]
        ]
      },
      "id": "way/214148762"
    },
    {
      "type": "Feature",
      "properties": {
        "@id": "way/214162275",
        "layer": "-1",
        "name": "Mambalam Drain",
        "tunnel": "yes",
        "waterway": "drain"
      },
      "geometry": {
        "type": "LineString",
        "coordinates": [
          [
            80.2308608,
            13.0304919
          ],
          [
            80.2306314,
            13.0304566
          ]
        ]
      },
      "id": "way/214162275"
    },
    {
      "type": "Feature",
      "properties": {
        "@id": "way/217696076",
        "layer": "-1",
        "tunnel": "yes",
        "waterway": "drain"
      },
      "geometry": {
        "type": "LineString",
        "coordinates": [
          [
            80.2453012,
            13.0756047
          ],
          [
            80.2456855,
            13.0758401
          ],
          [
            80.2458827,
            13.0759709
          ],
          [
            80.2463493,
            13.0762253
          ],
          [
            80.2465994,
            13.0763651
          ],
          [
            80.246732,
            13.0765239
          ],
          [
            80.2469669,
            13.0774368
          ],
          [
            80.2470799,
            13.0776148
          ],
          [
            80.2471942,
            13.0777552
          ],
          [
            80.2475616,
            13.0779914
          ],
          [
            80.2477989,
            13.0780453
          ],
          [
            80.2485396,
            13.0783236
          ],
          [
            80.2494645,
            13.0785013
          ],
          [
            80.2501995,
            13.0786051
          ],
          [
            80.2515607,
            13.0786559
          ],
          [
            80.2516064,
            13.0785669
          ],
          [
            80.2520805,
            13.0759574
          ],
          [
            80.2521565,
            13.0753403
          ],
          [
            80.2523414,
            13.0738392
          ],
          [
            80.2523501,
            13.0734114
          ],
          [
            80.2522204,
            13.0725643
          ],
          [
            80.2520912,
            13.0723816
          ],
          [
            80.2518667,
            13.0722887
          ],
          [
            80.2505259,
            13.0720401
          ],
          [
            80.249711,
            13.0717675
          ],
          [
            80.2481207,
            13.0713784
          ],
          [
            80.2473415,
            13.0709966
          ],
          [
            80.2473788,
            13.0708959
          ],
          [
            80.2475105,
            13.0706259
          ]
        ]
      },
      "id": "way/217696076"
    },
    {
      "type": "Feature",
      "properties": {
        "@id": "way/217802635",
        "layer": "-1",
        "name": "Virugambakkam Canal",
        "waterway": "drain"
      },
      "geometry": {
        "type": "LineString",
        "coordinates": [
          [
            80.1874178,
            13.0569144
          ],
          [
            80.1877875,
            13.0580157
          ],
          [
            80.1881694,
            13.0583165
          ],
          [
            80.1884944,
            13.0586252
          ],
          [
            80.1888682,
            13.0586648
          ],
          [
            80.1889479,
            13.0588919
          ]
        ]
      },
      "id": "way/217802635"
    },
    {
      "type": "Feature",
      "properties": {
        "@id": "way/217926516",
        "layer": "-1",
        "tunnel": "yes",
        "waterway": "drain"
      },
      "geometry": {
        "type": "LineString",
        "coordinates": [
          [
            80.2215033,
            13.0959182
          ],
          [
            80.2217019,
            13.0974111
          ],
          [
            80.2220227,
            13.0989347
          ]
        ]
      },
      "id": "way/217926516"
    },
    {
      "type": "Feature",
      "properties": {
        "@id": "way/217926517",
        "layer": "-1",
        "waterway": "drain"
      },
      "geometry": {
        "type": "LineString",
        "coordinates": [
          [
            80.2220227,
            13.0989347
          ],
          [
            80.2224193,
            13.1020681
          ],
          [
            80.2227084,
            13.1035221
          ]
        ]
      },
      "id": "way/217926517"
    },
    {
      "type": "Feature",
      "properties": {
        "@id": "way/217926518",
        "layer": "-1",
        "tunnel": "yes",
        "waterway": "drain"
      },
      "geometry": {
        "type": "LineString",
        "coordinates": [
          [
            80.2274962,
            13.091656
          ],
          [
            80.2284036,
            13.0907711
          ],
          [
            80.2283229,
            13.0903456
          ],
          [
            80.2293387,
            13.0893825
          ],
          [
            80.2312623,
            13.0884562
          ],
          [
            80.2326888,
            13.0880983
          ],
          [
            80.2343152,
            13.0878141
          ],
          [
            80.2371952,
            13.0872088
          ],
          [
            80.2380057,
            13.0869404
          ],
          [
            80.2400428,
            13.085951
          ],
          [
            80.2406263,
            13.0857931
          ],
          [
            80.2419177,
            13.0856405
          ],
          [
            80.2422959,
            13.0853931
          ],
          [
            80.2423878,
            13.0852352
          ]
        ]
      },
      "id": "way/217926518"
    },
    {
      "type": "Feature",
      "properties": {
        "@id": "way/240869135",
        "layer": "-1",
        "waterway": "drain"
      },
      "geometry": {
        "type": "LineString",
        "coordinates": [
          [
            80.2274962,
            13.091656
          ],
          [
            80.2263936,
            13.0927969
          ],
          [
            80.2257891,
            13.0933985
          ],
          [
            80.224495,
            13.0943659
          ],
          [
            80.2236999,
            13.0949602
          ],
          [
            80.2231825,
            13.0952372
          ],
          [
            80.2215033,
            13.0959182
          ]
        ]
      },
      "id": "way/240869135"
    },
    {
      "type": "Feature",
      "properties": {
        "@id": "way/328358961",
        "intermittent": "yes",
        "layer": "-1",
        "name": "Veerangal Canal",
        "tunnel": "culvert",
        "waterway": "drain"
      },
      "geometry": {
        "type": "LineString",
        "coordinates": [
          [
            80.1912645,
            12.9753871
          ],
          [
            80.1913298,
            12.9754706
          ],
          [
            80.1915422,
            12.9754311
          ],
          [
            80.191704,
            12.975542
          ],
          [
            80.1922224,
            12.9759634
          ],
          [
            80.1928141,
            12.9765375
          ],
          [
            80.1930695,
            12.9769071
          ],
          [
            80.1932996,
            12.977289
          ],
          [
            80.1934316,
            12.9776157
          ],
          [
            80.1934589,
            12.9776832
          ],
          [
            80.1936435,
            12.9782574
          ],
          [
            80.1938457,
            12.9787649
          ],
          [
            80.1940733,
            12.9792208
          ],
          [
            80.1943236,
            12.9795781
          ],
          [
            80.1943742,
            12.9798392
          ],
          [
            80.1944425,
            12.9802409
          ],
          [
            80.1945917,
            12.9806425
          ],
          [
            80.1946069,
            12.9808076
          ],
          [
            80.1945411,
            12.980953
          ],
          [
            80.1947009,
            12.9810311
          ],
          [
            80.1947622,
            12.9811141
          ],
          [
            80.1948117,
            12.9812138
          ],
          [
            80.1950734,
            12.9812685
          ],
          [
            80.1952112,
            12.9812018
          ],
          [
            80.195429,
            12.9812204
          ],
          [
            80.1955675,
            12.981166
          ],
          [
            80.1956641,
            12.9810622
          ],
          [
            80.1957414,
            12.9809078
          ],
          [
            80.1957773,
            12.980738
          ],
          [
            80.1959142,
            12.9804954
          ],
          [
            80.1960538,
            12.9802049
          ],
          [
            80.1962134,
            12.9799629
          ],
          [
            80.1963373,
            12.9799054
          ],
          [
            80.1966048,
            12.9799054
          ],
          [
            80.1968487,
            12.9799801
          ],
          [
            80.1971673,
            12.9799725
          ],
          [
            80.1975292,
            12.9798996
          ],
          [
            80.1976452,
            12.9798172
          ],
          [
            80.1979068,
            12.9797118
          ],
          [
            80.1984713,
            12.9796869
          ],
          [
            80.198902,
            12.9795987
          ],
          [
            80.1992502,
            12.9796543
          ],
          [
            80.1996553,
            12.9796524
          ],
          [
            80.1998559,
            12.9795278
          ],
          [
            80.2001057,
            12.9792998
          ],
          [
            80.2003653,
            12.9792193
          ],
          [
            80.2012774,
            12.9791057
          ],
          [
            80.2014884,
            12.9791134
          ],
          [
            80.2016908,
            12.9791028
          ]
        ]
      },
      "id": "way/328358961"
    },
    {
      "type": "Feature",
      "properties": {
        "@id": "way/346285748",
        "intermittent": "yes",
        "layer": "-1",
        "name": "Ainsley Canal",
        "waterway": "drain"
      },
      "geometry": {
        "type": "LineString",
        "coordinates": [
          [
            80.2311011,
            13.1024099
          ],
          [
            80.2313052,
            13.102388
          ],
          [
            80.2338465,
            13.1019295
          ],
          [
            80.2398804,
            13.1008427
          ],
          [
            80.2435454,
            13.1003579
          ],
          [
            80.2447444,
            13.0998804
          ],
          [
            80.2469271,
            13.0988698
          ]
        ]
      },
      "id": "way/346285748"
    },
    {
      "type": "Feature",
      "properties": {
        "@id": "way/346285803",
        "layer": "-1",
        "name": "Egankipuram Canal",
        "osm_id": "25368787",
        "waterway": "drain"
      },
      "geometry": {
        "type": "LineString",
        "coordinates": [
          [
            80.2439264,
            13.1069146
          ],
          [
            80.2438647,
            13.1063639
          ],
          [
            80.2438303,
            13.1054026
          ],
          [
            80.2439528,
            13.1052273
          ],
          [
            80.24485,
            13.1050643
          ],
          [
            80.2451247,
            13.1050058
          ],
          [
            80.2457939,
            13.1038466
          ],
          [
            80.2463253,
            13.1030576
          ],
          [
            80.2464536,
            13.1027577
          ],
          [
            80.2468842,
            13.1017038
          ],
          [
            80.2468909,
            13.1016323
          ],
          [
            80.2470216,
            13.1002408
          ],
          [
            80.2467812,
            13.0995721
          ],
          [
            80.2469271,
            13.0988698
          ],
          [
            80.2473087,
            13.0972026
          ]
        ]
      },
      "id": "way/346285803"
    },
    {
      "type": "Feature",
      "properties": {
        "@id": "way/650607195",
        "layer": "-1",
        "waterway": "drain"
      },
      "geometry": {
        "type": "LineString",
        "coordinates": [
          [
            80.2438747,
            13.0240684
          ],
          [
            80.2441628,
            13.0243911
          ],
          [
            80.2443461,
            13.0245742
          ],
          [
            80.2449117,
            13.025047
          ]
        ]
      },
      "id": "way/650607195"
    },
    {
      "type": "Feature",
      "properties": {
        "@id": "way/881880730",
        "waterway": "drain"
      },
      "geometry": {
        "type": "LineString",
        "coordinates": [
          [
            80.1973464,
            12.9958207
          ],
          [
            80.1970813,
            12.99577
          ],
          [
            80.1965736,
            12.9957376
          ],
          [
            80.1964001,
            12.9956747
          ],
          [
            80.1963844,
            12.9954532
          ],
          [
            80.1963847,
            12.9951928
          ],
          [
            80.196357,
            12.9950517
          ],
          [
            80.196303,
            12.9949489
          ],
          [
            80.1962903,
            12.9948704
          ]
        ]
      },
      "id": "way/881880730"
    },
    {
      "type": "Feature",
      "properties": {
        "@id": "way/881880731",
        "layer": "-1",
        "tunnel": "culvert",
        "waterway": "drain"
      },
      "geometry": {
        "type": "LineString",
        "coordinates": [
          [
            80.1960215,
            12.9937121
          ],
          [
            80.1960426,
            12.9936335
          ],
          [
            80.1960538,
            12.9935921
          ],
          [
            80.1960683,
            12.9935381
          ]
        ]
      },
      "id": "way/881880731"
    },
    {
      "type": "Feature",
      "properties": {
        "@id": "way/881880732",
        "waterway": "drain"
      },
      "geometry": {
        "type": "LineString",
        "coordinates": [
          [
            80.1960683,
            12.9935381
          ],
          [
            80.1960814,
            12.993391
          ],
          [
            80.1962323,
            12.9923145
          ],
          [
            80.1964188,
            12.9923405
          ]
        ]
      },
      "id": "way/881880732"
    },
    {
      "type": "Feature",
      "properties": {
        "@id": "way/881880733",
        "layer": "-1",
        "tunnel": "culvert",
        "waterway": "drain"
      },
      "geometry": {
        "type": "LineString",
        "coordinates": [
          [
            80.1964188,
            12.9923405
          ],
          [
            80.1965196,
            12.9923545
          ]
        ]
      },
      "id": "way/881880733"
    },
    {
      "type": "Feature",
      "properties": {
        "@id": "way/881880734",
        "waterway": "drain"
      },
      "geometry": {
        "type": "LineString",
        "coordinates": [
          [
            80.1965196,
            12.9923545
          ],
          [
            80.1968415,
            12.9923993
          ]
        ]
      },
      "id": "way/881880734"
    },
    {
      "type": "Feature",
      "properties": {
        "@id": "way/881880735",
        "layer": "-1",
        "tunnel": "culvert",
        "waterway": "drain"
      },
      "geometry": {
        "type": "LineString",
        "coordinates": [
          [
            80.1968415,
            12.9923993
          ],
          [
            80.1969426,
            12.9924134
          ]
        ]
      },
      "id": "way/881880735"
    },
    {
      "type": "Feature",
      "properties": {
        "@id": "way/881880736",
        "waterway": "drain"
      },
      "geometry": {
        "type": "LineString",
        "coordinates": [
          [
            80.1969426,
            12.9924134
          ],
          [
            80.1970002,
            12.9924214
          ],
          [
            80.1976828,
            12.9923906
          ],
          [
            80.1982956,
            12.9923179
          ]
        ]
      },
      "id": "way/881880736"
    },
    {
      "type": "Feature",
      "properties": {
        "@id": "way/881880737",
        "layer": "-1",
        "tunnel": "culvert",
        "waterway": "drain"
      },
      "geometry": {
        "type": "LineString",
        "coordinates": [
          [
            80.1982956,
            12.9923179
          ],
          [
            80.1983968,
            12.9923059
          ]
        ]
      },
      "id": "way/881880737"
    },
    {
      "type": "Feature",
      "properties": {
        "@id": "way/881880738",
        "layer": "-1",
        "tunnel": "culvert",
        "waterway": "drain"
      },
      "geometry": {
        "type": "LineString",
        "coordinates": [
          [
            80.1985239,
            12.9922908
          ],
          [
            80.1987409,
            12.9922361
          ]
        ]
      },
      "id": "way/881880738"
    },
    {
      "type": "Feature",
      "properties": {
        "@id": "way/881880739",
        "waterway": "drain"
      },
      "geometry": {
        "type": "LineString",
        "coordinates": [
          [
            80.1983968,
            12.9923059
          ],
          [
            80.1985239,
            12.9922908
          ]
        ]
      },
      "id": "way/881880739"
    },
    {
      "type": "Feature",
      "properties": {
        "@id": "way/881880740",
        "waterway": "drain"
      },
      "geometry": {
        "type": "LineString",
        "coordinates": [
          [
            80.1962742,
            12.994771
          ],
          [
            80.1962688,
            12.9947375
          ],
          [
            80.1963122,
            12.9938983
          ]
        ]
      },
      "id": "way/881880740"
    },
    {
      "type": "Feature",
      "properties": {
        "@id": "way/881880741",
        "layer": "-1",
        "tunnel": "culvert",
        "waterway": "drain"
      },
      "geometry": {
        "type": "LineString",
        "coordinates": [
          [
            80.1962903,
            12.9948704
          ],
          [
            80.1962742,
            12.994771
          ]
        ]
      },
      "id": "way/881880741"
    },
    {
      "type": "Feature",
      "properties": {
        "@id": "way/881880742",
        "waterway": "drain"
      },
      "geometry": {
        "type": "LineString",
        "coordinates": [
          [
            80.1963152,
            12.9938396
          ],
          [
            80.1960153,
            12.9937351
          ],
          [
            80.1960215,
            12.9937121
          ]
        ]
      },
      "id": "way/881880742"
    },
    {
      "type": "Feature",
      "properties": {
        "@id": "way/881880743",
        "layer": "-1",
        "tunnel": "culvert",
        "waterway": "drain"
      },
      "geometry": {
        "type": "LineString",
        "coordinates": [
          [
            80.1963122,
            12.9938983
          ],
          [
            80.1963152,
            12.9938396
          ]
        ]
      },
      "id": "way/881880743"
    },
    {
      "type": "Feature",
      "properties": {
        "@id": "way/1040499034",
        "layer": "-1",
        "waterway": "drain"
      },
      "geometry": {
        "type": "LineString",
        "coordinates": [
          [
            80.1820425,
            13.0221404
          ],
          [
            80.1822636,
            13.0220287
          ]
        ]
      },
      "id": "way/1040499034"
    },
    {
      "type": "Feature",
      "properties": {
        "@id": "way/1080322573",
        "waterway": "drain"
      },
      "geometry": {
        "type": "LineString",
        "coordinates": [
          [
            80.1958069,
            12.9839759
          ],
          [
            80.1957975,
            12.9833685
          ],
          [
            80.1953755,
            12.9822644
          ],
          [
            80.1953309,
            12.9821503
          ],
          [
            80.195291,
            12.9820951
          ],
          [
            80.195216,
            12.9819632
          ],
          [
            80.1951604,
            12.9818269
          ],
          [
            80.1951616,
            12.9817283
          ],
          [
            80.1951979,
            12.9816308
          ],
          [
            80.1952198,
            12.981572
          ],
          [
            80.1952602,
            12.9814637
          ],
          [
            80.1951764,
            12.9812618
          ],
          [
            80.1952112,
            12.9812018
          ]
        ]
      },
      "id": "way/1080322573"
    },
    {
      "type": "Feature",
      "properties": {
        "@id": "way/1080322574",
        "waterway": "drain"
      },
      "geometry": {
        "type": "LineString",
        "coordinates": [
          [
            80.1963491,
            12.984303
          ],
          [
            80.1958069,
            12.9839759
          ]
        ]
      },
      "id": "way/1080322574"
    },
    {
      "type": "Feature",
      "properties": {
        "@id": "way/1123838335",
        "waterway": "drain"
      },
      "geometry": {
        "type": "LineString",
        "coordinates": [
          [
            80.1789994,
            13.021774
          ],
          [
            80.1795677,
            13.021787
          ],
          [
            80.1801256,
            13.0215613
          ],
          [
            80.1802322,
            13.0213216
          ],
          [
            80.1801109,
            13.0206872
          ],
          [
            80.1801804,
            13.0205562
          ],
          [
            80.1804813,
            13.0203681
          ],
          [
            80.1807038,
            13.0204205
          ],
          [
            80.1808137,
            13.020993
          ],
          [
            80.1809394,
            13.0214002
          ],
          [
            80.181047,
            13.0214503
          ],
          [
            80.1812848,
            13.0213496
          ],
          [
            80.1817699,
            13.0217626
          ],
          [
            80.1821833,
            13.0219823
          ],
          [
            80.1822636,
            13.0220287
          ],
          [
            80.1824346,
            13.0220633
          ],
          [
            80.1825829,
            13.0221701
          ],
          [
            80.1827007,
            13.0223695
          ],
          [
            80.1826861,
            13.0226477
          ],
          [
            80.1826051,
            13.0229687
          ],
          [
            80.1823836,
            13.0231854
          ],
          [
            80.1823744,
            13.0233759
          ],
          [
            80.182589,
            13.023702
          ],
          [
            80.182795,
            13.0237355
          ],
          [
            80.1829406,
            13.0239793
          ],
          [
            80.1831853,
            13.0244797
          ],
          [
            80.1833807,
            13.0247828
          ],
          [
            80.1834771,
            13.024824
          ],
          [
            80.1836286,
            13.0247991
          ],
          [
            80.1840591,
            13.0246541
          ],
          [
            80.1841707,
            13.0245877
          ],
          [
            80.1843324,
            13.0243185
          ],
          [
            80.1845366,
            13.0240975
          ],
          [
            80.1847324,
            13.0239629
          ],
          [
            80.184837,
            13.0239289
          ],
          [
            80.1848976,
            13.0239323
          ],
          [
            80.1849443,
            13.0239799
          ],
          [
            80.1850322,
            13.0241687
          ],
          [
            80.1851132,
            13.0242713
          ],
          [
            80.185238,
            13.0243092
          ],
          [
            80.1853626,
            13.024307
          ],
          [
            80.1854608,
            13.0242516
          ],
          [
            80.1858189,
            13.023158
          ],
          [
            80.1858938,
            13.0230535
          ],
          [
            80.1859776,
            13.0229922
          ]
        ]
      },
      "id": "way/1123838335"
    },
    {
      "type": "Feature",
      "properties": {
        "@id": "way/1123838347",
        "waterway": "drain"
      },
      "geometry": {
        "type": "LineString",
        "coordinates": [
          [
            80.1866935,
            13.0227645
          ],
          [
            80.1868634,
            13.0226733
          ],
          [
            80.1874835,
            13.0221916
          ],
          [
            80.187656,
            13.0221977
          ],
          [
            80.1881326,
            13.0224628
          ],
          [
            80.1885772,
            13.0225924
          ],
          [
            80.1888137,
            13.0225877
          ],
          [
            80.1890975,
            13.0226992
          ]
        ]
      },
      "id": "way/1123838347"
    },
    {
      "type": "Feature",
      "properties": {
        "@id": "way/1123838348",
        "layer": "-1",
        "tunnel": "culvert",
        "waterway": "drain"
      },
      "geometry": {
        "type": "LineString",
        "coordinates": [
          [
            80.1859776,
            13.0229922
          ],
          [
            80.186051,
            13.0229477
          ]
        ]
      },
      "id": "way/1123838348"
    },
    {
      "type": "Feature",
      "properties": {
        "@id": "way/1123838349",
        "waterway": "drain"
      },
      "geometry": {
        "type": "LineString",
        "coordinates": [
          [
            80.186051,
            13.0229477
          ],
          [
            80.1861509,
            13.0228977
          ],
          [
            80.1864181,
            13.0228582
          ],
          [
            80.1865813,
            13.0228084
          ],
          [
            80.186611,
            13.0228004
          ]
        ]
      },
      "id": "way/1123838349"
    },
    {
      "type": "Feature",
      "properties": {
        "@id": "way/1123838350",
        "layer": "-1",
        "tunnel": "culvert",
        "waterway": "drain"
      },
      "geometry": {
        "type": "LineString",
        "coordinates": [
          [
            80.186611,
            13.0228004
          ],
          [
            80.1866935,
            13.0227645
          ]
        ]
      },
      "id": "way/1123838350"
    },
    {
      "type": "Feature",
      "properties": {
        "@id": "way/1188575627",
        "intermittent": "yes",
        "layer": "-1",
        "name": "Ainsley Canal",
        "waterway": "drain"
      },
      "geometry": {
        "type": "LineString",
        "coordinates": [
          [
            80.2196662,
            13.1040213
          ],
          [
            80.2205576,
            13.1038526
          ]
        ]
      },
      "id": "way/1188575627"
    },
    {
      "type": "Feature",
      "properties": {
        "@id": "way/1188575628",
        "intermittent": "yes",
        "layer": "-1",
        "name": "Ainsley Canal",
        "tunnel": "culvert",
        "waterway": "drain"
      },
      "geometry": {
        "type": "LineString",
        "coordinates": [
          [
            80.2205576,
            13.1038526
          ],
          [
            80.220667,
            13.1038319
          ]
        ]
      },
      "id": "way/1188575628"
    },
    {
      "type": "Feature",
      "properties": {
        "@id": "way/1188575631",
        "intermittent": "yes",
        "layer": "-1",
        "name": "Ainsley Canal",
        "waterway": "drain"
      },
      "geometry": {
        "type": "LineString",
        "coordinates": [
          [
            80.220667,
            13.1038319
          ],
          [
            80.2206836,
            13.1038288
          ],
          [
            80.2227084,
            13.1035221
          ],
          [
            80.226997,
            13.1030175
          ]
        ]
      },
      "id": "way/1188575631"
    },
    {
      "type": "Feature",
      "properties": {
        "@id": "way/1188575632",
        "intermittent": "yes",
        "layer": "-1",
        "name": "Ainsley Canal",
        "tunnel": "culvert",
        "waterway": "drain"
      },
      "geometry": {
        "type": "LineString",
        "coordinates": [
          [
            80.226997,
            13.1030175
          ],
          [
            80.2271073,
            13.1030045
          ]
        ]
      },
      "id": "way/1188575632"
    },
    {
      "type": "Feature",
      "properties": {
        "@id": "way/1188575635",
        "intermittent": "yes",
        "layer": "-1",
        "name": "Ainsley Canal",
        "waterway": "drain"
      },
      "geometry": {
        "type": "LineString",
        "coordinates": [
          [
            80.2271073,
            13.1030045
          ],
          [
            80.2289117,
            13.1027922
          ],
          [
            80.229624,
            13.1025686
          ],
          [
            80.2309907,
            13.1024218
          ]
        ]
      },
      "id": "way/1188575635"
    },
    {
      "type": "Feature",
      "properties": {
        "@id": "way/1188575636",
        "intermittent": "yes",
        "layer": "-1",
        "name": "Ainsley Canal",
        "tunnel": "culvert",
        "waterway": "drain"
      },
      "geometry": {
        "type": "LineString",
        "coordinates": [
          [
            80.2309907,
            13.1024218
          ],
          [
            80.2311011,
            13.1024099
          ]
        ]
      },
      "id": "way/1188575636"
    },
    {
      "type": "Feature",
      "properties": {
        "@id": "way/1202685097",
        "layer": "-1",
        "name": "Egankipuram Canal",
        "osm_id": "25368787",
        "waterway": "drain"
      },
      "geometry": {
        "type": "LineString",
        "coordinates": [
          [
            80.2473906,
            13.0970297
          ],
          [
            80.2474344,
            13.0970078
          ],
          [
            80.2476411,
            13.0970475
          ],
          [
            80.2494263,
            13.0975014
          ]
        ]
      },
      "id": "way/1202685097"
    },
    {
      "type": "Feature",
      "properties": {
        "@id": "way/1202685098",
        "layer": "-1",
        "name": "Egankipuram Canal",
        "osm_id": "25368787",
        "tunnel": "culvert",
        "waterway": "drain"
      },
      "geometry": {
        "type": "LineString",
        "coordinates": [
          [
            80.2473087,
            13.0972026
          ],
          [
            80.2473906,
            13.0970297
          ]
        ]
      },
      "id": "way/1202685098"
    },
    {
      "type": "Feature",
      "properties": {
        "@id": "way/1202685099",
        "layer": "-1",
        "name": "Egankipuram Canal",
        "osm_id": "25368787",
        "waterway": "drain"
      },
      "geometry": {
        "type": "LineString",
        "coordinates": [
          [
            80.2503175,
            13.0977301
          ],
          [
            80.2510566,
            13.0979462
          ]
        ]
      },
      "id": "way/1202685099"
    },
    {
      "type": "Feature",
      "properties": {
        "@id": "way/1202685100",
        "layer": "-1",
        "name": "Egankipuram Canal",
        "osm_id": "25368787",
        "tunnel": "culvert",
        "waterway": "drain"
      },
      "geometry": {
        "type": "LineString",
        "coordinates": [
          [
            80.2502602,
            13.0977168
          ],
          [
            80.2503175,
            13.0977301
          ]
        ]
      },
      "id": "way/1202685100"
    },
    {
      "type": "Feature",
      "properties": {
        "@id": "way/1202685103",
        "layer": "-1",
        "name": "Egankipuram Canal",
        "osm_id": "25368787",
        "waterway": "drain"
      },
      "geometry": {
        "type": "LineString",
        "coordinates": [
          [
            80.2495317,
            13.0975206
          ],
          [
            80.2501206,
            13.097668
          ],
          [
            80.2502602,
            13.0977168
          ]
        ]
      },
      "id": "way/1202685103"
    },
    {
      "type": "Feature",
      "properties": {
        "@id": "way/1202685104",
        "layer": "-1",
        "name": "Egankipuram Canal",
        "osm_id": "25368787",
        "tunnel": "culvert",
        "waterway": "drain"
      },
      "geometry": {
        "type": "LineString",
        "coordinates": [
          [
            80.2494263,
            13.0975014
          ],
          [
            80.2495317,
            13.0975206
          ]
        ]
      },
      "id": "way/1202685104"
    },
    {
      "type": "Feature",
      "properties": {
        "@id": "way/1202708871",
        "layer": "-1",
        "name": "Vyasarpadi Canal",
        "waterway": "drain"
      },
      "geometry": {
        "type": "LineString",
        "coordinates": [
          [
            80.2570515,
            13.1183964
          ],
          [
            80.2574914,
            13.1181783
          ],
          [
            80.2588561,
            13.1179777
          ],
          [
            80.2591651,
            13.1179024
          ],
          [
            80.2605316,
            13.1179024
          ]
        ]
      },
      "id": "way/1202708871"
    },
    {
      "type": "Feature",
      "properties": {
        "@id": "way/1202708872",
        "layer": "-1",
        "name": "Vyasarpadi Canal",
        "tunnel": "culvert",
        "waterway": "drain"
      },
      "geometry": {
        "type": "LineString",
        "coordinates": [
          [
            80.2569602,
            13.1184416
          ],
          [
            80.2570515,
            13.1183964
          ]
        ]
      },
      "id": "way/1202708872"
    },
    {
      "type": "Feature",
      "properties": {
        "@id": "way/1202708875",
        "layer": "-1",
        "name": "Vyasarpadi Canal",
        "waterway": "drain"
      },
      "geometry": {
        "type": "LineString",
        "coordinates": [
          [
            80.2606331,
            13.1179024
          ],
          [
            80.2608903,
            13.1179024
          ],
          [
            80.2612169,
            13.1178338
          ],
          [
            80.2616299,
            13.1176816
          ],
          [
            80.2617899,
            13.1175294
          ]
        ]
      },
      "id": "way/1202708875"
    },
    {
      "type": "Feature",
      "properties": {
        "@id": "way/1202708876",
        "layer": "-1",
        "name": "Vyasarpadi Canal",
        "tunnel": "culvert",
        "waterway": "drain"
      },
      "geometry": {
        "type": "LineString",
        "coordinates": [
          [
            80.2605316,
            13.1179024
          ],
          [
            80.2606331,
            13.1179024
          ]
        ]
      },
      "id": "way/1202708876"
    },
    {
      "type": "Feature",
      "properties": {
        "@id": "way/1229272623",
        "layer": "-1",
        "waterway": "drain"
      },
      "geometry": {
        "type": "LineString",
        "coordinates": [
          [
            80.2409961,
            13.0287581
          ],
          [
            80.2409894,
            13.0287325
          ],
          [
            80.2403778,
            13.0260984
          ]
        ]
      },
      "id": "way/1229272623"
    },
    {
      "type": "Feature",
      "properties": {
        "@id": "way/1229272624",
        "layer": "-1",
        "tunnel": "culvert",
        "waterway": "drain"
      },
      "geometry": {
        "type": "LineString",
        "coordinates": [
          [
            80.2410215,
            13.0288542
          ],
          [
            80.2409961,
            13.0287581
          ]
        ]
      },
      "id": "way/1229272624"
    },
    {
      "type": "Feature",
      "properties": {
        "@id": "way/1229272625",
        "layer": "-1",
        "waterway": "drain"
      },
      "geometry": {
        "type": "LineString",
        "coordinates": [
          [
            80.241806,
            13.0315962
          ],
          [
            80.2414479,
            13.0304369
          ]
        ]
      },
      "id": "way/1229272625"
    },
    {
      "type": "Feature",
      "properties": {
        "@id": "way/1229272626",
        "layer": "-1",
        "tunnel": "culvert",
        "waterway": "drain"
      },
      "geometry": {
        "type": "LineString",
        "coordinates": [
          [
            80.2414479,
            13.0304369
          ],
          [
            80.2414312,
            13.0303828
          ],
          [
            80.2414098,
            13.0303135
          ]
        ]
      },
      "id": "way/1229272626"
    },
    {
      "type": "Feature",
      "properties": {
        "@id": "way/1282455638",
        "intermittent": "yes",
        "waterway": "drain"
      },
      "geometry": {
        "type": "LineString",
        "coordinates": [
          [
            80.1994474,
            13.1200111
          ],
          [
            80.1995034,
            13.1199341
          ],
          [
            80.1997555,
            13.1197134
          ],
          [
            80.1997287,
            13.1192118
          ],
          [
            80.1992781,
            13.118465
          ],
          [
            80.1987229,
            13.1184624
          ]
        ]
      },
      "id": "way/1282455638"
    },
    {
      "type": "Feature",
      "properties": {
        "@id": "way/1298345127",
        "layer": "-1",
        "name": "Virugambakkam Canal",
        "waterway": "drain"
      },
      "geometry": {
        "type": "LineString",
        "coordinates": [
          [
            80.1865605,
            13.0540422
          ],
          [
            80.186688,
            13.0546909
          ]
        ]
      },
      "id": "way/1298345127"
    },
    {
      "type": "Feature",
      "properties": {
        "@id": "way/1298345128",
        "layer": "-1",
        "name": "Virugambakkam Canal",
        "tunnel": "culvert",
        "waterway": "drain"
      },
      "geometry": {
        "type": "LineString",
        "coordinates": [
          [
            80.186688,
            13.0546909
          ],
          [
            80.1867094,
            13.0547996
          ]
        ]
      },
      "id": "way/1298345128"
    },
    {
      "type": "Feature",
      "properties": {
        "@id": "way/1298345129",
        "layer": "-1",
        "name": "Virugambakkam Canal",
        "waterway": "drain"
      },
      "geometry": {
        "type": "LineString",
        "coordinates": [
          [
            80.1867094,
            13.0547996
          ],
          [
            80.1867799,
            13.0551582
          ],
          [
            80.1868121,
            13.0554143
          ],
          [
            80.1868112,
            13.0554243
          ],
          [
            80.1867799,
            13.0557756
          ],
          [
            80.1868218,
            13.0559103
          ]
        ]
      },
      "id": "way/1298345129"
    },
    {
      "type": "Feature",
      "properties": {
        "@id": "way/1298345130",
        "layer": "-1",
        "name": "Virugambakkam Canal",
        "tunnel": "culvert",
        "waterway": "drain"
      },
      "geometry": {
        "type": "LineString",
        "coordinates": [
          [
            80.1868218,
            13.0559103
          ],
          [
            80.1868888,
            13.0561257
          ]
        ]
      },
      "id": "way/1298345130"
    },
    {
      "type": "Feature",
      "properties": {
        "@id": "way/1298345131",
        "layer": "-1",
        "name": "Virugambakkam Canal",
        "waterway": "drain"
      },
      "geometry": {
        "type": "LineString",
        "coordinates": [
          [
            80.1868888,
            13.0561257
          ],
          [
            80.1869424,
            13.0562981
          ],
          [
            80.1872837,
            13.0563772
          ],
          [
            80.1873379,
            13.0566306
          ],
          [
            80.1873409,
            13.0566446
          ]
        ]
      },
      "id": "way/1298345131"
    },
    {
      "type": "Feature",
      "properties": {
        "@id": "way/1298345132",
        "layer": "-1",
        "name": "Virugambakkam Canal",
        "tunnel": "culvert",
        "waterway": "drain"
      },
      "geometry": {
        "type": "LineString",
        "coordinates": [
          [
            80.1873852,
            13.0568173
          ],
          [
            80.1874178,
            13.0569144
          ]
        ]
      },
      "id": "way/1298345132"
    },
    {
      "type": "Feature",
      "properties": {
        "@id": "way/1298345133",
        "layer": "-1",
        "name": "Virugambakkam Canal",
        "waterway": "drain"
      },
      "geometry": {
        "type": "LineString",
        "coordinates": [
          [
            80.187362,
            13.0567432
          ],
          [
            80.187365,
            13.0567572
          ],
          [
            80.1873852,
            13.0568173
          ]
        ]
      },
      "id": "way/1298345133"
    },
    {
      "type": "Feature",
      "properties": {
        "@id": "way/1298345134",
        "layer": "-1",
        "name": "Virugambakkam Canal",
        "tunnel": "culvert",
        "waterway": "drain"
      },
      "geometry": {
        "type": "LineString",
        "coordinates": [
          [
            80.1873409,
            13.0566446
          ],
          [
            80.187362,
            13.0567432
          ]
        ]
      },
      "id": "way/1298345134"
    },
    {
      "type": "Feature",
      "properties": {
        "@id": "way/1458961208",
        "waterway": "drain"
      },
      "geometry": {
        "type": "LineString",
        "coordinates": [
          [
            80.2355298,
            12.988411
          ],
          [
            80.2355601,
            12.9896371
          ]
        ]
      },
      "id": "way/1458961208"
    },
    {
      "type": "Feature",
      "properties": {
        "@id": "way/1458961209",
        "layer": "-1",
        "tunnel": "culvert",
        "waterway": "drain"
      },
      "geometry": {
        "type": "LineString",
        "coordinates": [
          [
            80.2355601,
            12.9896371
          ],
          [
            80.2355812,
            12.9897175
          ]
        ]
      },
      "id": "way/1458961209"
    },
    {
      "type": "Feature",
      "properties": {
        "@id": "node/7169186268",
        "man_made": "manhole",
        "manhole": "sewer",
        "ref": "man hole"
      },
      "geometry": {
        "type": "Point",
        "coordinates": [
          80.2066788,
          13.0335227
        ]
      },
      "id": "node/7169186268"
    },
    {
      "type": "Feature",
      "properties": {
        "@id": "node/7602920300",
        "man_made": "manhole",
        "manhole": "sewer",
        "ref": "man hole"
      },
      "geometry": {
        "type": "Point",
        "coordinates": [
          80.206181,
          13.0333523
        ]
      },
      "id": "node/7602920300"
    },
    {
      "type": "Feature",
      "properties": {
        "@id": "node/12752262084",
        "man_made": "manhole",
        "manhole": "telecom",
        "material": "concrete",
        "operator": "Reliance Jio Infocomm Limited"
      },
      "geometry": {
        "type": "Point",
        "coordinates": [
          80.2761423,
          13.0229025
        ]
      },
      "id": "node/12752262084"
    },
    {
      "type": "Feature",
      "properties": {
        "@id": "node/12752262085",
        "man_made": "manhole",
        "manhole": "telecom",
        "material": "concrete",
        "operator": "Reliance Jio Infocomm Limited"
      },
      "geometry": {
        "type": "Point",
        "coordinates": [
          80.2754807,
          13.0232579
        ]
      },
      "id": "node/12752262085"
    }
  ]
}